*******************************************************************************
 Revised: Dec 14, 2018            Larissa  / (Neptune)                      807

 SATELLITE PHYSICAL PROPERTIES:
  Radius (km)             =  104 x 89 (+-7) Density (g cm^-3)   =              
  Mass (10^20 kg )        =                 Geometric Albedo    =  0.06 
                                            V(1,0)              = +7.3 

 SATELLITE ORBITAL DATA:
  Semi-major axis, a (km) = 73.548(10^3)    Orbital period      = 0.554654 d
  Eccentricity, e         = 0.0             Rotational period   = 
  Inclination, i  (deg)   = 0.20
*******************************************************************************
 
 
*******************************************************************************
Ephemeris / WWW_USER Fri Jun 19 18:57:39 2020 Pasadena, USA      / Horizons
*******************************************************************************
Target body name: Larissa (807)                   {source: nep090_merged_DE435}
Center body name: Solar System Barycenter (0)     {source: DE431mx}
Center-site name: BODY CENTER
*******************************************************************************
Start time      : A.D. 1969-Jun-28 00:00:00.0000 TDB
Stop  time      : A.D. 2045-Jan-20 00:00:00.0000 TDB
Step-size       : 7200 minutes
*******************************************************************************
Center geodetic : 0.00000000,0.00000000,0.0000000 {E-lon(deg),Lat(deg),Alt(km)}
Center cylindric: 0.00000000,0.00000000,0.0000000 {E-lon(deg),Dxy(km),Dz(km)}
Center radii    : (undefined)                                                  
Output units    : AU-D
Output type     : GEOMETRIC cartesian states
Output format   : 2 (position and velocity)
Reference frame : Ecliptic of J2000.0
*******************************************************************************
            JDTDB,            Calendar Date (TDB),        delta-T,                      X,                      Y,                      Z,                     VX,                     VY,                     VZ,
******************************************************************************************************************************************************************************************************************
$$SOE
2448680.500000000, A.D. 1992-Feb-28 00:00:00.0000,      58.185362,  8.769399917109830E+00, -2.888768849681696E+01,  3.928267806658186E-01,  5.384218781905774E-03, -3.404171382696127E-03, -2.645018872283595E-03,
2448685.500000000, A.D. 1992-Mar-04 00:00:00.0000,      58.185439,  8.784337038055659E+00, -2.888307187829124E+01,  3.923661398447305E-01,  5.797512175304843E-03, -3.105905147993001E-03, -2.706492574379621E-03,
2448690.500000000, A.D. 1992-Mar-09 00:00:00.0000,      58.185506,  8.799275393066671E+00, -2.887844494142225E+01,  3.919047650184762E-01,  6.186764086152454E-03, -2.773914163123502E-03, -2.745858017532684E-03,
2448695.500000000, A.D. 1992-Mar-14 00:00:00.0000,      58.185560,  8.814214755582665E+00, -2.887380716647798E+01,  3.914430926489582E-01,  6.549063454835084E-03, -2.410905251408780E-03, -2.762897464186371E-03,
2448700.500000000, A.D. 1992-Mar-19 00:00:00.0000,      58.185601,  8.829154616966767E+00, -2.886915825756482E+01,  3.909815373182829E-01,  6.881551249792980E-03, -2.019659737913755E-03, -2.757403016222799E-03,
2448705.500000000, A.D. 1992-Mar-24 00:00:00.0000,      58.185629,  8.844094412601239E+00, -2.886449819639176E+01,  3.905203019672968E-01,  7.181374440501214E-03, -1.603162891993185E-03, -2.729150382189821E-03,
2448710.500000000, A.D. 1992-Mar-29 00:00:00.0000,      58.185647,  8.859033770217126E+00, -2.885982708455019E+01,  3.900593546291994E-01,  7.445653613936215E-03, -1.164879660677726E-03, -2.678100671230095E-03,
2448715.500000000, A.D. 1992-Apr-03 00:00:00.0000,      58.185654,  8.873972584552936E+00, -2.885514490664085E+01,  3.895986047999805E-01,  7.671724732505289E-03, -7.087847013710688E-04, -2.604756777633487E-03,
2448720.500000000, A.D. 1992-Apr-08 00:00:00.0000,      58.185649,  8.888910866307526E+00, -2.885045142419989E+01,  3.891381269279847E-01,  7.857655753220645E-03, -2.390246598829557E-04, -2.510089054716770E-03,
2448725.500000000, A.D. 1992-Apr-13 00:00:00.0000,      58.185630,  8.903848470709343E+00, -2.884574625820752E+01,  3.886782426011658E-01,  8.002199105438921E-03,  2.403319607319164E-04, -2.395140585999525E-03,
2448730.500000000, A.D. 1992-Apr-18 00:00:00.0000,      58.185598,  8.918784932135138E+00, -2.884102912962649E+01,  3.882193924138403E-01,  8.104458921624209E-03,  7.253140866330951E-04, -2.260947352526996E-03,
2448735.500000000, A.D. 1992-Apr-23 00:00:00.0000,      58.185554,  8.933719587955251E+00, -2.883630003050956E+01,  3.877619089061636E-01,  8.163700932345735E-03,  1.212144274068398E-03, -2.108518164483377E-03,
2448740.500000000, A.D. 1992-Apr-28 00:00:00.0000,      58.185501,  8.948651821752955E+00, -2.883155920231155E+01,  3.873058793153682E-01,  8.179336231273872E-03,  1.696991669896788E-03, -1.938895962297662E-03,
2448745.500000000, A.D. 1992-May-03 00:00:00.0000,      58.185437,  8.963581270193709E+00, -2.882680694843646E+01,  3.868511824493564E-01,  8.150870252932645E-03,  2.175655097894812E-03, -1.753343445417559E-03,
2448750.500000000, A.D. 1992-May-08 00:00:00.0000,      58.185363,  8.978507846183950E+00, -2.882204340929668E+01,  3.863976892535481E-01,  8.078226080084596E-03,  2.643869044916184E-03, -1.553553867502842E-03,
2448755.500000000, A.D. 1992-May-13 00:00:00.0000,      58.185278,  8.993431516517337E+00, -2.881726850601968E+01,  3.859454754620263E-01,  7.962079659034421E-03,  3.097479045782836E-03, -1.341571771324483E-03,
2448760.500000000, A.D. 1992-May-18 00:00:00.0000,      58.185182,  9.008352030844799E+00, -2.881248208738551E+01,  3.854948444064524E-01,  7.803767664538140E-03,  3.532631980204435E-03, -1.119381311936345E-03,
2448765.500000000, A.D. 1992-May-23 00:00:00.0000,      58.185079,  9.023268848015540E+00, -2.880768416970678E+01,  3.850461416349757E-01,  7.604912506173433E-03,  3.945836233576296E-03, -8.888151998162731E-04,
2448770.500000000, A.D. 1992-May-28 00:00:00.0000,      58.184969,  9.038181308319992E+00, -2.880287504166063E+01,  3.845995458980377E-01,  7.367211282247880E-03,  4.333893428660137E-03, -6.516375596095627E-04,
2448775.500000000, A.D. 1992-Jun-02 00:00:00.0000,      58.184853,  9.053088889091898E+00, -2.879805519685741E+01,  3.841549780636919E-01,  7.092524907627819E-03,  4.693683470141490E-03, -4.096585451350616E-04,
2448780.500000000, A.D. 1992-Jun-07 00:00:00.0000,      58.184731,  9.067991384009559E+00, -2.879322510711463E+01,  3.837121915664430E-01,  6.782867912333151E-03,  5.022007412563425E-03, -1.648326389337141E-04,
2448785.500000000, A.D. 1992-Jun-12 00:00:00.0000,      58.184602,  9.082888832346663E+00, -2.878838502540370E+01,  3.832709996201175E-01,  6.440661558420040E-03,  5.315879188393097E-03,  8.059942334184405E-05,
2448790.500000000, A.D. 1992-Jun-17 00:00:00.0000,      58.184468,  9.097781262808329E+00, -2.878353500530074E+01,  3.828314441862349E-01,  6.068955331417040E-03,  5.572663691494754E-03,  3.242069692618657E-04,
2448795.500000000, A.D. 1992-Jun-22 00:00:00.0000,      58.184331,  9.112668468273673E+00, -2.877867507870663E+01,  3.823937556224301E-01,  5.671193909758641E-03,  5.790335276296401E-03,  5.638733423303172E-04,
2448800.500000000, A.D. 1992-Jun-27 00:00:00.0000,      58.184193,  9.127549984156335E+00, -2.877380549512221E+01,  3.819581363353536E-01,  5.250979522359986E-03,  5.967289075940868E-03,  7.977163705296268E-04,
2448805.500000000, A.D. 1992-Jul-02 00:00:00.0000,      59.184055,  9.142425314666950E+00, -2.876892676356188E+01,  3.815245733415648E-01,  4.811734063202363E-03,  6.102217285029561E-03,  1.023981625726899E-03,
2448810.500000000, A.D. 1992-Jul-07 00:00:00.0000,      59.183916,  9.157294186997403E+00, -2.876403952199505E+01,  3.810928071160197E-01,  4.356921471960725E-03,  6.194063053366912E-03,  1.240938855663865E-03,
2448815.500000000, A.D. 1992-Jul-12 00:00:00.0000,      59.183775,  9.172156656332829E+00, -2.875914430513215E+01,  3.806624756874913E-01,  3.890219605541965E-03,  6.241830685361196E-03,  1.446741308617531E-03,
2448820.500000000, A.D. 1992-Jul-17 00:00:00.0000,      59.183636,  9.187012969022074E+00, -2.875424138116281E+01,  3.802333450957604E-01,  3.415465339917122E-03,  6.244930806841445E-03,  1.639462885338340E-03,
2448825.500000000, A.D. 1992-Jul-22 00:00:00.0000,      59.183500,  9.201863292217601E+00, -2.874933083887338E+01,  3.798054236033516E-01,  2.936884910534221E-03,  6.203265853234842E-03,  1.817164987437693E-03,
2448830.500000000, A.D. 1992-Jul-27 00:00:00.0000,      59.183369,  9.216707534320244E+00, -2.874441279751138E+01,  3.793788643324561E-01,  2.458854117993002E-03,  6.117393106945358E-03,  1.978360650017767E-03,
2448835.500000000, A.D. 1992-Aug-01 00:00:00.0000,      59.183243,  9.231545404418839E+00, -2.873948760537423E+01,  3.789537299075981E-01,  1.985488771206292E-03,  5.988327415989794E-03,  2.121970592391320E-03,
2448840.500000000, A.D. 1992-Aug-06 00:00:00.0000,      59.183122,  9.246376665540689E+00, -2.873455583366651E+01,  3.785298384113910E-01,  1.520555942125874E-03,  5.817230695626388E-03,  2.247001949321349E-03,
2448845.500000000, A.D. 1992-Aug-11 00:00:00.0000,      59.183005,  9.261201366908459E+00, -2.872961810268111E+01,  3.781067922696411E-01,  1.067749303228005E-03,  5.605514203944151E-03,  2.352501413587485E-03,
2448850.500000000, A.D. 1992-Aug-16 00:00:00.0000,      59.182895,  9.276019866293145E+00, -2.872467484263031E+01,  3.776841717422267E-01,  6.307282674416287E-04,  5.354707452966788E-03,  2.437524989968816E-03,
2448855.500000000, A.D. 1992-Aug-21 00:00:00.0000,      59.182794,  9.290832627298867E+00, -2.871972620697402E+01,  3.772617426290977E-01,  2.131815754985240E-04,  5.066744712081929E-03,  2.501139223739970E-03,
